{"type": "FeatureCollection", "features": [ {"type": "Feature", "properties": {"norad_id": 66737, "name": "FLOCK 4H-34", "group": "last-30-days", "lat": 8.385999106690539, "lon": -107.37528353141623, "alt_km": 511.67052092622725, "timestamp": "2025-12-25T22:42:15.708481+00:00", "meta": {"OBJECT_NAME": "FLOCK 4H-34", "OBJECT_ID": "2025-276BZ", "EPOCH": "2025-12-25T17:12:22.523040", "MEAN_MOTION": 15.1818778, "ECCENTRICITY": 0.0002384, "INCLINATION": 97.4434, "RA_OF_ASC_NODE": 71.295, "ARG_OF_PERICENTER": 153.9069, "MEAN_ANOMALY": 206.2286, "EPHEMERIS_TYPE": 0, "CLASSIFICATION_TYPE": "U", "NORAD_CAT_ID": 66737, "ELEMENT_SET_NO": 999, "REV_AT_EPOCH": 334, "BSTAR": 0.00052356, "MEAN_MOTION_DOT": 0.00010643, "MEAN_MOTION_DDOT": 0}, "tle": {"line1": "1 66737U 25276BZ  25359.71692735  .00010643  00000+0  52356-3 0  9992", "line2": "2 66737  97.4434  71.2950 0002384 153.9069 206.2286 15.18187780  3348"}}, "geometry": {"type": "Point", "coordinates": [-107.37528353141623, 8.385999106690539]}}, {"type": "Feature", "properties": {"norad_id": 66738, "name": "FLOCK 4H-35", "group": "last-30-days", "lat": -1.522377235950339, "lon": -108.68889955458644, "alt_km": 512.9100720870501, "timestamp": "2025-12-25T22:42:15.708496+00:00", "meta": {"OBJECT_NAME": "FLOCK 4H-35", "OBJECT_ID": "2025-276CA", "EPOCH": "2025-12-25T17:09:46.019808", "MEAN_MOTION": 15.18283762, "ECCENTRICITY": 0.0002605, "INCLINATION": 97.4398, "RA_OF_ASC_NODE": 71.283, "ARG_OF_PERICENTER": 142.7622, "MEAN_ANOMALY": 217.3793, "EPHEMERIS_TYPE": 0, "CLASSIFICATION_TYPE": "U", "NORAD_CAT_ID": 66738, "ELEMENT_SET_NO": 999, "REV_AT_EPOCH": 338, "BSTAR": 0.00049039, "MEAN_MOTION_DOT": 9.992e-05, "MEAN_MOTION_DDOT": 0}, "tle": {"line1": "1 66738U 25276CA  25359.71511597  .00009992  00000+0  49039-3 0  9998", "line2": "2 66738  97.4398  71.2830 0002605 142.7622 217.3793 15.18283762  3389"}}, "geometry": {"type": "Point", "coordinates": [-108.68889955458644, -1.522377235950339]}}, {"type": "Feature", "properties": {"norad_id": 66739, "name": "FLOCK 4H-36", "group": "last-30-days", "lat": 23.162012246259753, "lon": -105.27502176764334, "alt_km": 509.71843409936173, "timestamp": "2025-12-25T22:42:15.708511+00:00", "meta": {"OBJECT_NAME": "FLOCK 4H-36", "OBJECT_ID": "2025-276CB", "EPOCH": "2025-12-25T17:16:15.830688", "MEAN_MOTION": 15.18032921, "ECCENTRICITY": 0.0002581, "INCLINATION": 97.4444, "RA_OF_ASC_NODE": 71.2955, "ARG_OF_PERICENTER": 173.8978, "MEAN_ANOMALY": 186.2288, "EPHEMERIS_TYPE": 0, "CLASSIFICATION_TYPE": "U", "NORAD_CAT_ID": 66739, "ELEMENT_SET_NO": 999, "REV_AT_EPOCH": 409, "BSTAR": 0.00047886, "MEAN_MOTION_DOT": 9.685e-05, "MEAN_MOTION_DDOT": 0}, "tle": {"line1": "1 66739U 25276CB  25359.71962767  .00009685  00000+0  47886-3 0  9995", "line2": "2 66739  97.4444  71.2955 0002581 173.8978 186.2288 15.18032921  4093"}}, "geometry": {"type": "Point", "coordinates": [-105.27502176764334, 23.162012246259753]}}, {"type": "Feature", "properties": {"norad_id": 66740, "name": "TRANSPORTER-15CC", "group": "last-30-days", "lat": 51.97619068442665, "lon": -98.88353626350158, "alt_km": 507.91482220660146, "timestamp": "2025-12-25T22:42:15.708521+00:00", "meta": {"OBJECT_NAME": "TRANSPORTER-15CC", "OBJECT_ID": "2025-276CC", "EPOCH": "2025-12-25T17:23:53.566656", "MEAN_MOTION": 15.17754454, "ECCENTRICITY": 0.0002236, "INCLINATION": 97.4407, "RA_OF_ASC_NODE": 71.278, "ARG_OF_PERICENTER": 221.2037, "MEAN_ANOMALY": 138.9028, "EPHEMERIS_TYPE": 0, "CLASSIFICATION_TYPE": "U", "NORAD_CAT_ID": 66740, "ELEMENT_SET_NO": 999, "REV_AT_EPOCH": 409, "BSTAR": 0.00040222, "MEAN_MOTION_DOT": 8.057e-05, "MEAN_MOTION_DDOT": 0}, "tle": {"line1": "1 66740U 25276CC  25359.72492554  .00008057  00000+0  40222-3 0  9999", "line2": "2 66740  97.4407  71.2780 0002236 221.2037 138.9028 15.17754454  4098"}}, "geometry": {"type": "Point", "coordinates": [-98.88353626350158, 51.97619068442665]}}, {"type": "Feature", "properties": {"norad_id": 66741, "name": "TRANSPORTER-15CD", "group": "last-30-days", "lat": 58.19183455285201, "lon": -96.35256181515942, "alt_km": 507.3569734984412, "timestamp": "2025-12-25T22:42:15.708532+00:00", "meta": {"OBJECT_NAME": "TRANSPORTER-15CD", "OBJECT_ID": "2025-276CD", "EPOCH": "2025-12-25T17:25:33.402720", "MEAN_MOTION": 15.17648488, "ECCENTRICITY": 0.0001178, "INCLINATION": 97.4402, "RA_OF_ASC_NODE": 71.2679, "ARG_OF_PERICENTER": 211.0503, "MEAN_ANOMALY": 149.0662, "EPHEMERIS_TYPE": 0, "CLASSIFICATION_TYPE": "U", "NORAD_CAT_ID": 66741, "ELEMENT_SET_NO": 999, "REV_AT_EPOCH": 409, "BSTAR": 0.00028952, "MEAN_MOTION_DOT": 5.762e-05, "MEAN_MOTION_DDOT": 0}, "tle": {"line1": "1 66741U 25276CD  25359.72608105  .00005762  00000+0  28952-3 0  9997", "line2": "2 66741  97.4402  71.2679 0001178 211.0503 149.0662 15.17648488  4096"}}, "geometry": {"type": "Point", "coordinates": [-96.35256181515942, 58.19183455285201]}}, {"type": "Feature", "properties": {"norad_id": 66742, "name": "TRANSPORTER-15CE", "group": "last-30-days", "lat": 49.1445370975037, "lon": -99.82412269645445, "alt_km": 507.3863371266161, "timestamp": "2025-12-25T22:42:15.708541+00:00", "meta": {"OBJECT_NAME": "TRANSPORTER-15CE", "OBJECT_ID": "2025-276CE", "EPOCH": "2025-12-25T15:48:11.775168", "MEAN_MOTION": 15.17736106, "ECCENTRICITY": 0.0001886, "INCLINATION": 97.4398, "RA_OF_ASC_NODE": 71.2031, "ARG_OF_PERICENTER": 178.3449, "MEAN_ANOMALY": 181.7792, "EPHEMERIS_TYPE": 0, "CLASSIFICATION_TYPE": "U", "NORAD_CAT_ID": 66742, "ELEMENT_SET_NO": 999, "REV_AT_EPOCH": 408, "BSTAR": 0.00046997, "MEAN_MOTION_DOT": 9.422e-05, "MEAN_MOTION_DDOT": 0}, "tle": {"line1": "1 66742U 25276CE  25359.65846962  .00009422  00000+0  46997-3 0  9991", "line2": "2 66742  97.4398  71.2031 0001886 178.3449 181.7792 15.17736106  4084"}}, "geometry": {"type": "Point", "coordinates": [-99.82412269645445, 49.1445370975037]}}, {"type": "Feature", "properties": {"norad_id": 66743, "name": "TRANSPORTER-15CF", "group": "last-30-days", "lat": 76.50117681523439, "lon": 38.48438499353152, "alt_km": 518.6638742380619, "timestamp": "2025-12-25T22:42:15.708551+00:00", "meta": {"OBJECT_NAME": "TRANSPORTER-15CF", "OBJECT_ID": "2025-276CF", "EPOCH": "2025-12-25T04:50:49.043328", "MEAN_MOTION": 15.11484429, "ECCENTRICITY": 0.0034918, "INCLINATION": 97.4397, "RA_OF_ASC_NODE": 70.743, "ARG_OF_PERICENTER": 109.5161, "MEAN_ANOMALY": 250.9846, "EPHEMERIS_TYPE": 0, "CLASSIFICATION_TYPE": "U", "NORAD_CAT_ID": 66743, "ELEMENT_SET_NO": 999, "REV_AT_EPOCH": 401, "BSTAR": -0.23724, "MEAN_MOTION_DOT": -0.03580195, "MEAN_MOTION_DDOT": 0}, "tle": {"line1": "1 66743U 25276CF  25359.20195652 -.03580195  00000+0 -23724+0 0  9991", "line2": "2 66743  97.4397  70.7430 0034918 109.5161 250.9846 15.11484429  4014"}}, "geometry": {"type": "Point", "coordinates": [38.48438499353152, 76.50117681523439]}}, {"type": "Feature", "properties": {"norad_id": 66744, "name": "TRANSPORTER-15CG", "group": "last-30-days", "lat": 48.12138092996126, "lon": -100.2245812484889, "alt_km": 505.6393287621777, "timestamp": "2025-12-25T22:42:15.708563+00:00", "meta": {"OBJECT_NAME": "TRANSPORTER-15CG", "OBJECT_ID": "2025-276CG", "EPOCH": "2025-12-25T03:09:31.796064", "MEAN_MOTION": 15.19341003, "ECCENTRICITY": 0.00243198, "INCLINATION": 97.3868, "RA_OF_ASC_NODE": 70.659, "ARG_OF_PERICENTER": 231.5349, "MEAN_ANOMALY": 128.3704, "EPHEMERIS_TYPE": 0, "CLASSIFICATION_TYPE": "U", "NORAD_CAT_ID": 66744, "ELEMENT_SET_NO": 999, "REV_AT_EPOCH": 400, "BSTAR": 0.00064815362, "MEAN_MOTION_DOT": 0.00013749, "MEAN_MOTION_DDOT": 0}, "tle": {"line1": "1 66744U 25276CG  25359.13161801  .00013749  00000+0  64815-3 0  9994", "line2": "2 66744  97.3868  70.6590 0024319 231.5349 128.3704 15.19341003  4009"}}, "geometry": {"type": "Point", "coordinates": [-100.2245812484889, 48.12138092996126]}}, {"type": "Feature", "properties": {"norad_id": 66745, "name": "TRANSPORTER-15CH", "group": "last-30-days", "lat": 72.80634072692435, "lon": -83.5388526402101, "alt_km": 506.6177792290582, "timestamp": "2025-12-25T22:42:15.708574+00:00", "meta": {"OBJECT_NAME": "TRANSPORTER-15CH", "OBJECT_ID": "2025-276CH", "EPOCH": "2025-12-25T17:29:34.888128", "MEAN_MOTION": 15.17410823, "ECCENTRICITY": 0.0001274, "INCLINATION": 97.4405, "RA_OF_ASC_NODE": 71.265, "ARG_OF_PERICENTER": 191.3984, "MEAN_ANOMALY": 168.7221, "EPHEMERIS_TYPE": 0, "CLASSIFICATION_TYPE": "U", "NORAD_CAT_ID": 66745, "ELEMENT_SET_NO": 999, "REV_AT_EPOCH": 409, "BSTAR": 0.0001514, "MEAN_MOTION_DOT": 2.96e-05, "MEAN_MOTION_DDOT": 0}, "tle": {"line1": "1 66745U 25276CH  25359.72887602  .00002960  00000+0  15140-3 0  9994", "line2": "2 66745  97.4405  71.2650 0001274 191.3984 168.7221 15.17410823  4091"}}, "geometry": {"type": "Point", "coordinates": [-83.5388526402101, 72.80634072692435]}}, {"type": "Feature", "properties": {"norad_id": 66746, "name": "TRANSPORTER-15CJ", "group": "last-30-days", "lat": 57.28787843523336, "lon": -96.83939383426926, "alt_km": 499.1158721061747, "timestamp": "2025-12-25T22:42:15.708583+00:00", "meta": {"OBJECT_NAME": "TRANSPORTER-15CJ", "OBJECT_ID": "2025-276CJ", "EPOCH": "2025-12-25T14:15:58.503168", "MEAN_MOTION": 15.19439795, "ECCENTRICITY": 0.0013422, "INCLINATION": 97.3832, "RA_OF_ASC_NODE": 71.1695, "ARG_OF_PERICENTER": 194.8104, "MEAN_ANOMALY": 165.274, "EPHEMERIS_TYPE": 0, "CLASSIFICATION_TYPE": "U", "NORAD_CAT_ID": 66746, "ELEMENT_SET_NO": 999, "REV_AT_EPOCH": 407, "BSTAR": 0.00083205, "MEAN_MOTION_DOT": 0.00017634, "MEAN_MOTION_DDOT": 0}, "tle": {"line1": "1 66746U 25276CJ  25359.59442712  .00017634  00000+0  83205-3 0  9990", "line2": "2 66746  97.3832  71.1695 0013422 194.8104 165.2740 15.19439795  4070"}}, "geometry": {"type": "Point", "coordinates": [-96.83939383426926, 57.28787843523336]}}]}